  },
  {
    id: 'sentinel-1c-62261',
    name: 'Sentinel-1C',
    type: 'earth-observation',
    tle1: '1 59051U 24036A   25214.27345678  .00000198  00000-0  54321-4 0  9993',
    tle2: '2 59051  98.1853 47.7654 0001678  80.1234 283.4567 14.59000000080000',
    dimensions: { length: 10.0, width: 2.4, height: 3.4 },
	image: 'static/images/esa_sentinel1.png'
  },
  {
    id: 'sentinel-2a-40697',
    name: 'Sentinel-2A',
    type: 'earth-observation',
    tle1: '1 40697U 15028A   25214.31234567  .00000456  00000-0  78901-4 0  9980',
    tle2: '2 40697  98.5692 123.4567 0001234  89.0123 271.1234 14.30000000480000',
    dimensions: { length: 3.7, width: 2.1, height: 2.4 },
	image: 'static/images/esa_sentinel2.png'
  },
  {
    id: 'sentinel-2b-42063',
    name: 'Sentinel-2B',
    type: 'earth-observation',
    tle1: '1 42063U 17013A   25214.32345678  .00000523  00000-0  89012-4 0  9979',
    tle2: '2 42063  98.5693 234.5678 0001345  90.1234 272.2345 14.30000000380000',
    dimensions: { length: 3.7, width: 2.1, height: 2.4 },
	image: 'static/images/esa_sentinel2.png'

  },
  {
    id: 'sentinel-2c-60989',
    name: 'Sentinel-2C',
    type: 'earth-observation',
    tle1: '1 59999U 24077A   25214.33456789  .00000467  00000-0  81234-4 0  9978',
    tle2: '2 59999  98.5694 345.6789 0001456  91.2345 273.3456 14.30000000180000',
    dimensions: { length: 3.7, width: 2.1, height: 2.4 },
	image: 'static/images/esa_sentinel2.png'

  },
  {
    id: 'sentinel-3a-41335',
    name: 'Sentinel-3A',
    type: 'earth-observation',
    tle1: '1 41335U 16011A   25214.34567890  .00000123  00000-0  45678-4 0  9993',
    tle2: '2 41335  98.6543 198.7654 0001678  82.3456 277.7654 14.26000000460000',
    dimensions: { length: 3.9, width: 2.2, height: 2.2 },
	image: 'static/images/esa_sentinel3.png'
  },
  {
    id: 'sentinel-3b-43437',
    name: 'Sentinel-3B',
    type: 'earth-observation',
    tle1: '1 43437U 18039A   25214.35678901  .00000156  00000-0  51234-4 0  9992',
    tle2: '2 43437  98.6544 318.8765 0001789  83.4567 278.8765 14.26000000360000',
    dimensions: { length: 3.9, width: 2.2, height: 2.2 },
	image: 'static/images/esa_sentinel3.png'
  },
  {
    id: 'sentinel-5p-42969',
    name: 'Sentinel-5P (TROPOMI)',
    type: 'earth-observation',
    tle1: '1 42969U 17064A   25214.38901234  .00000345  00000-0  67890-4 0  9989',
    tle2: '2 42969  98.7321 142.5678 0001345  86.7890 273.2109 14.19000000380000',
    dimensions: { length: 3.5, width: 2.1, height: 2.1 },
	image: 'static/images/esa_sentinel5.png'

  },
  {
    id: 'sentinel-6-46984',
    name: 'Sentinel-6A (Michael Freilich)',
    type: 'earth-observation',
    tle1: '1 46984U 20087A   25214.39012345  .00000278  00000-0  61234-4 0  9988',
    tle2: '2 46984  66.0391 234.5678 0000567  89.0123 271.1234 12.84000000210000',
    dimensions: { length: 3.3, width: 2.3, height: 2.8 },
	image: 'static/images/esa_sentinel6.png'

  },
  {
    id: 'yam-10',
    name: 'YAM-10 (EarthDaily)',
    type: 'earth-observation',
    tle1: '1 64580U 25135BE  25214.57789272  .00002177  00000+0  22209-3 0  9994',
    tle2: '2 64580  97.7488 328.2944 0003140 359.1021   1.0191 14.91676300  6352',
    dimensions: { length: 1.0, width: 0.5, height: 0.3 }, // Estimated small CubeSat dimensions
    image: 'static/images/earthdaily_yam10.webp', // Optional: add EarthDaily logo if available
    defaultBearing: 180 // Camera points south when tracking YAM-10
  }
];

// Starlink constellation generator for realistic mega-constellation
function generateStarlinkConstellation(): SatelliteConfig[] {
  const starlinks: SatelliteConfig[] = [];
  let satelliteId = 1000;
  
  // Starlink Shell 1: 53.0° inclination, ~550km altitude
  // 72 orbital planes, 22 satellites per plane = 1,584 satellites
  for (let plane = 0; plane < 72; plane++) {
    const raan = plane * 5.0; // 5° spacing between planes
    for (let position = 0; position < 22; position++) {
      const meanAnomaly = position * (360 / 22); // Even spacing in orbit
      const epochDays = 25214 + (satelliteId * 0.0001); // Slight time variations
      
      starlinks.push({
        id: `starlink-${satelliteId}`,
        name: `Starlink-${satelliteId}`,
        shortname: `SL-${satelliteId}`,
        type: 'communication',
        tle1: `1 ${44000 + satelliteId}U 19074${String.fromCharCode(65 + (satelliteId % 26))}   ${epochDays.toFixed(8)}  .00002000  00000-0  14000-3 0  9999`,
        tle2: `2 ${44000 + satelliteId}  53.0000 ${raan.toFixed(4)} 0001500  ${(satelliteId % 360).toFixed(4)} ${meanAnomaly.toFixed(4)} 15.05000000${(satelliteId * 1000).toString().padStart(8, '0')}`,
        dimensions: { length: 2.8, width: 1.4, height: 0.32 },
        image: 'static/images/starlink.png'
      });
      
      satelliteId++;
      if (satelliteId > 2000) break; // Limit for performance
    }
    if (satelliteId > 2000) break;
  }
  
  // Starlink Shell 2: 53.2° inclination, ~540km altitude  
  // Additional shell with different parameters
  for (let plane = 0; plane < 36; plane++) {
    const raan = plane * 10.0; // 10° spacing
    for (let position = 0; position < 20; position++) {
      const meanAnomaly = position * (360 / 20);
      const epochDays = 25214 + (satelliteId * 0.0001);
      
      starlinks.push({
        id: `starlink-${satelliteId}`,
        name: `Starlink-${satelliteId}`,
        shortname: `SL-${satelliteId}`,
        type: 'communication',
        tle1: `1 ${44000 + satelliteId}U 20074${String.fromCharCode(65 + (satelliteId % 26))}   ${epochDays.toFixed(8)}  .00001800  00000-0  13000-3 0  9999`,
        tle2: `2 ${44000 + satelliteId}  53.2000 ${raan.toFixed(4)} 0001400  ${(satelliteId % 360).toFixed(4)} ${meanAnomaly.toFixed(4)} 15.06000000${(satelliteId * 1000).toString().padStart(8, '0')}`,
        dimensions: { length: 2.8, width: 1.4, height: 0.32 },
        image: 'static/images/starlink.png'
      });
      
      satelliteId++;
      if (satelliteId > 2500) break;
    }
    if (satelliteId > 2500) break;
  }
  
  // Starlink Shell 3: 70.0° inclination (polar coverage)
  // Smaller shell for polar regions
  for (let plane = 0; plane < 12; plane++) {
    const raan = plane * 30.0; // 30° spacing
    for (let position = 0; position < 18; position++) {
      const meanAnomaly = position * (360 / 18);
      const epochDays = 25214 + (satelliteId * 0.0001);
      
      starlinks.push({
        id: `starlink-${satelliteId}`,
        name: `Starlink-${satelliteId}`,
        shortname: `SL-${satelliteId}`,
        type: 'communication',
        tle1: `1 ${44000 + satelliteId}U 21074${String.fromCharCode(65 + (satelliteId % 26))}   ${epochDays.toFixed(8)}  .00001600  00000-0  12000-3 0  9999`,
        tle2: `2 ${44000 + satelliteId}  70.0000 ${raan.toFixed(4)} 0001300  ${(satelliteId % 360).toFixed(4)} ${meanAnomaly.toFixed(4)} 15.07000000${(satelliteId * 1000).toString().padStart(8, '0')}`,
        dimensions: { length: 2.8, width: 1.4, height: 0.32 },
        image: 'static/images/starlink.png'
      });
      
      satelliteId++;
      if (satelliteId > 2700) break;
    }
    if (satelliteId > 2700) break;
  }
  
  console.log(`🛰️ Generated ${starlinks.length} Starlink satellites across multiple orbital shells`);
  return starlinks;
}

// Generate the massive Starlink constellation
const STARLINK_CONSTELLATION = generateStarlinkConstellation();

// Export combined satellite configuration
export const SATELLITE_CONFIGS_WITH_STARLINK = [...SATELLITE_CONFIGS, ...STARLINK_CONSTELLATION];